COSMOS 2532 (RODNIK-S *)
1 43753U 18097C   26201.26942799 -.00000077  00000+0 -62559-3 0  9991
2 43753  82.5116 201.5895 0017789 349.7684  10.3031 12.42910303346387
MINXSS-2                
1 43758U 18099A   26201.18766689  .00024879  00000+0  45916-3 0  9993
2 43758  97.4516 278.4911 0008871 145.1260 215.0574 15.49056948419230
SIRION PATHFINDER-2     
1 43759U 18099B   26201.08076455  .00002733  00000+0  15058-3 0  9997
2 43759  97.4233 249.3587 0008997 174.6217 185.5114 15.14800599417602
AISTECHSAT 2            
1 43768U 18099L   26201.10004357  .00002637  00000+0  14173-3 0  9992
2 43768  97.4273 248.4166 0005139 164.6633 195.4757 15.15741130417266
FOX-1CLIFF (AO-95)      
1 43770U 18099N   26201.10375177  .00006244  00000+0  23587-3 0  9993
2 43770  97.4362 261.2401 0007658 220.0884 139.9791 15.27333167418246
RANGE-A                 
1 43773U 18099R   26200.83789963  .00001938  00000+0  11138-3 0  9991
2 43773  97.3948 242.4639 0008985 226.4445 133.6041 15.13629268417433
SNUSAT-2                
1 43782U 18099AA  26201.13840764  .00004304  00000+0  18974-3 0  9997
2 43782  97.4037 254.0225 0010747 171.0572 189.0857 15.22283253418046
SNUGLITE                
1 43784U 18099AC  26201.09395053  .00006593  00000+0  24535-3 0  9992
2 43784  97.3846 255.0614 0004033 147.3868 212.7621 15.27820786418342
ITASAT                  
1 43786U 18099AE  26201.08535022  .00003585  00000+0  17224-3 0  9990
2 43786  97.4008 251.9452 0011166 231.2773 128.7464 15.19415168417900
EAGLET-I                
1 43790U 18099AJ  26201.11949023  .00001636  00000+0  95801-4 0  9992
2 43790  97.4212 249.9171 0009921 224.9635 135.0794 15.13154065417311
ESEO                    
1 43792U 18099AL  26201.10689036  .00001076  00000+0  81297-4 0  9990
2 43792  97.3963 237.0842 0011132 214.2138 145.8373 15.04335091416754
THEA                    
1 43796U 18099AQ  26201.17550173  .00010303  00000+0  29551-3 0  9997
2 43796  97.4419 271.2109 0008424 158.4768 201.6832 15.36042002417753
ASTROCAST 0.1           
1 43798U 18099AS  26201.23630228  .00024133  00000+0  40638-3 0  9991
2 43798  97.4363 280.8170 0005346 115.3544 244.8262 15.51691624419554
JY1SAT (JO-97)          
1 43803U 18099AX  26201.09914413  .00009671  00000+0  29048-3 0  9995
2 43803  97.4105 264.0674 0007193 143.5903 216.5831 15.34614501418672
SUOMI-100               
1 43804U 18099AY  26201.12941423  .00006983  00000+0  24946-3 0  9996
2 43804  97.4164 261.4129 0011002 156.2124 203.9627 15.29100285418456
CENTAURI-1              
1 43809U 18099BD  26201.13127062  .00002635  00000+0  13784-3 0  9995
2 43809  97.4198 252.1462 0013424 206.8523 153.2017 15.16651835417491
GLOBAL-2                
1 43812U 18099BG  26201.10289273  .00001880  00000+0  12318-3 0  9992
2 43812  97.3546 236.2479 0007070  53.7355 306.4526 15.08843512416878
SEAHAWK-1               
1 43820U 18099BQ  26201.11726322  .00004576  00000+0  19578-3 0  9993
2 43820  97.3935 253.1084 0008389 180.9734 179.1488 15.23284658417541
SAUDISAT 5A             
1 43831U 18102A   26201.29675377  .00002965  00000+0  10994-3 0  9995
2 43831  97.3045 262.2428 0009941  27.2766 332.8994 15.28350669420737
SAUDISAT 5B             
1 43833U 18102C   26201.31021397  .00002774  00000+0  10228-3 0  9995
2 43833  97.3155 265.3857 0010707  28.5796 331.6029 15.28592209420857
ISAT                    
1 43879U 18111D   26200.82684062  .00081147  00000+0  62698-3 0  9993
2 43879  97.5847 138.7179 0008409 131.1464 229.0525 15.71622952416286
UWE-4                   
1 43880U 18111E   26201.26534730  .00019451  00000+0  37308-3 0  9999
2 43880  97.5826 131.2291 0006925 175.7426 184.3884 15.48018071415893
D-STAR ONE (SPARROW)    
1 43881U 18111F   26200.80511340  .00207395  00000+0  79431-3 0  9990
2 43881  97.6067 145.0445 0009005 135.6604 224.5389 15.86854129416523
JILIN-1 09              
1 43943U 19005B   26201.27906250  .00002514  00000+0  11735-3 0  9991
2 43943  97.4741 295.9657 0001857  24.6037 335.5286 15.20765256414171
JILIN-1 10              
1 43946U 19005E   26201.24320932  .00003175  00000+0  12614-3 0  9999
2 43946  97.4793 300.0569 0009029 153.5177 206.6524 15.26038744414351
EGYPTSAT-A (MISRSAT-A)  
1 44047U 19008A   26201.30808324  .00000110  00000+0  25222-4 0  9994
2 44047  98.0173 265.6236 0001772  93.5189 266.6221 14.72339073398117
EMISAT                  
1 44078U 19018A   26201.27403049 -.00000099  00000+0 -16147-4 0  9994
2 44078  98.4625 259.8890 0019550 116.9308 243.3883 14.43650147384830
JILIN-1 GAOFEN 3A       
1 44312U 19032C   26201.31866052  .00007367  00000+0  23413-3 0  9999
2 44312  44.9738 174.4975 0005078 143.1290 216.9945 15.33259829392926
WT 1B                   
1 44316U 19032G   26201.29055188  .00004510  00000+0  17375-3 0  9997
2 44316  44.9721 240.1603 0008117  67.8997 292.2747 15.27776970392149
